{
  "type": "FeatureCollection",
  "features": [
    {
      "type": "Feature",
      "properties": {
        "norad_id": 26766,
        "name": "INTELSAT 10 (IS-10)",
        "group": "intelsat",
        "lat": 5.199545577352361,
        "lon": -155.74539094221595,
        "alt_km": 36118.31975790418,
        "timestamp": "2025-12-11T22:43:46.939259+00:00",
        "meta_object_name": "INTELSAT 10 (IS-10)",
        "meta_object_id": "2001-019A",
        "meta_epoch": "2025-12-11T14:11:41.135712",
        "meta_mean_motion": 0.99078808,
        "meta_eccentricity": 0.00077853,
        "meta_inclination": 8.6274,
        "meta_ra_of_asc_node": 61.1692,
        "meta_arg_of_pericenter": 224.4537,
        "meta_mean_anomaly": 151.554,
        "meta_ephemeris_type": 0,
        "meta_classification_type": "U",
        "meta_norad_cat_id": 26766,
        "meta_element_set_no": 999,
        "meta_rev_at_epoch": 4372,
        "meta_bstar": 0,
        "meta_mean_motion_dot": -2.86e-06,
        "meta_mean_motion_ddot": 0,
        "tle_line1": "1 26766U 01019A   25345.59144833 -.00000286  00000+0  00000+0 0  9999",
        "tle_line2": "2 26766   8.6274  61.1692 0007785 224.4537 151.5540  0.99078808 43721"
      },
      "geometry": {
        "type": "Point",
        "coordinates": [
          -155.74539094221595,
          5.199545577352361
        ]
      }
    },
    {
      "type": "Feature",
      "properties": {
        "norad_id": 26900,
        "name": "INTELSAT 902 (IS-902)",
        "group": "intelsat",
        "lat": -4.994224267800661,
        "lon": 11.772043602341581,
        "alt_km": 35797.94259287082,
        "timestamp": "2025-12-11T22:43:46.939287+00:00",
        "meta_object_name": "INTELSAT 902 (IS-902)",
        "meta_object_id": "2001-039A",
        "meta_epoch": "2025-12-01T16:59:59.311968",
        "meta_mean_motion": 1.00270327,
        "meta_eccentricity": 0.00043097,
        "meta_inclination": 5.6187,
        "meta_ra_of_asc_node": 74.2002,
        "meta_arg_of_pericenter": 175.119,
        "meta_mean_anomaly": 26.3816,
        "meta_ephemeris_type": 0,
        "meta_classification_type": "U",
        "meta_norad_cat_id": 26900,
        "meta_element_set_no": 999,
        "meta_rev_at_epoch": 8871,
        "meta_bstar": 0,
        "meta_mean_motion_dot": -2.63e-06,
        "meta_mean_motion_ddot": 0,
        "tle_line1": "1 26900U 01039A   25335.70832537 -.00000263  00000+0  00000+0 0  9993",
        "tle_line2": "2 26900   5.6187  74.2002 0004309 175.1190  26.3816  1.00270327 88713"
      },
      "geometry": {
        "type": "Point",
        "coordinates": [
          11.772043602341581,
          -4.994224267800661
        ]
      }
    },
    {
      "type": "Feature",
      "properties": {
        "norad_id": 27380,
        "name": "INTELSAT 904 (IS-904)",
        "group": "intelsat",
        "lat": -4.224562655382608,
        "lon": 30.536377213728635,
        "alt_km": 35787.02433790804,
        "timestamp": "2025-12-11T22:43:46.939305+00:00",
        "meta_object_name": "INTELSAT 904 (IS-904)",
        "meta_object_id": "2002-007A",
        "meta_epoch": "2025-12-11T11:39:03.254112",
        "meta_mean_motion": 1.00272834,
        "meta_eccentricity": 0.00015323,
        "meta_inclination": 6.4519,
        "meta_ra_of_asc_node": 71.4464,
        "meta_arg_of_pericenter": 223.4619,
        "meta_mean_anomaly": 288.7916,
        "meta_ephemeris_type": 0,
        "meta_classification_type": "U",
        "meta_norad_cat_id": 27380,
        "meta_element_set_no": 999,
        "meta_rev_at_epoch": 4988,
        "meta_bstar": 0,
        "meta_mean_motion_dot": -2.2e-06,
        "meta_mean_motion_ddot": 0,
        "tle_line1": "1 27380U 02007A   25345.48545433 -.00000220  00000+0  00000+0 0  9997",
        "tle_line2": "2 27380   6.4519  71.4464 0001532 223.4619 288.7916  1.00272834 49888"
      },
      "geometry": {
        "type": "Point",
        "coordinates": [
          30.536377213728635,
          -4.224562655382608
        ]
      }
    },
    {
      "type": "Feature",
      "properties": {
        "norad_id": 27426,
        "name": "DIRECTV 5 (TEMPO 1)",
        "group": "intelsat",
        "lat": -3.573372652174922,
        "lon": -48.332460917020775,
        "alt_km": 35775.13018262403,
        "timestamp": "2025-12-11T22:43:46.939320+00:00",
        "meta_object_name": "DIRECTV 5 (TEMPO 1)",
        "meta_object_id": "2002-023A",
        "meta_epoch": "2025-12-11T09:33:43.623648",
        "meta_mean_motion": 1.00271797,
        "meta_eccentricity": 0.00035158,
        "meta_inclination": 4.3991,
        "meta_ra_of_asc_node": 77.668,
        "meta_arg_of_pericenter": 194.2691,
        "meta_mean_anomaly": 201.729,
        "meta_ephemeris_type": 0,
        "meta_classification_type": "U",
        "meta_norad_cat_id": 27426,
        "meta_element_set_no": 999,
        "meta_rev_at_epoch": 8624,
        "meta_bstar": 0,
        "meta_mean_motion_dot": -5.1e-07,
        "meta_mean_motion_ddot": 0,
        "tle_line1": "1 27426U 02023A   25345.39842157 -.00000051  00000+0  00000+0 0  9991",
        "tle_line2": "2 27426   4.3991  77.6680 0003515 194.2691 201.7290  1.00271797 86244"
      },
      "geometry": {
        "type": "Point",
        "coordinates": [
          -48.332460917020775,
          -3.573372652174922
        ]
      }
    },
    {
      "type": "Feature",
      "properties": {
        "norad_id": 27438,
        "name": "INTELSAT 905 (IS-905)",
        "group": "intelsat",
        "lat": -3.3967035916821042,
        "lon": -75.4984401778198,
        "alt_km": 35775.041807251495,
        "timestamp": "2025-12-11T22:43:46.939333+00:00",
        "meta_object_name": "INTELSAT 905 (IS-905)",
        "meta_object_id": "2002-027A",
        "meta_epoch": "2025-12-11T12:11:37.320576",
        "meta_mean_motion": 1.00272852,
        "meta_eccentricity": 0.00027503,
        "meta_inclination": 6.283,
        "meta_ra_of_asc_node": 72.0704,
        "meta_arg_of_pericenter": 196.0234,
        "meta_mean_anomaly": 218.0777,
        "meta_ephemeris_type": 0,
        "meta_classification_type": "U",
        "meta_norad_cat_id": 27438,
        "meta_element_set_no": 999,
        "meta_rev_at_epoch": 4948,
        "meta_bstar": 0,
        "meta_mean_motion_dot": 1e-06,
        "meta_mean_motion_ddot": 0,
        "tle_line1": "1 27438U 02027A   25345.50807084  .00000100  00000+0  00000+0 0  9995",
        "tle_line2": "2 27438   6.2830  72.0704 0002750 196.0234 218.0777  1.00272852 49488"
      },
      "geometry": {
        "type": "Point",
        "coordinates": [
          -75.4984401778198,
          -3.3967035916821042
        ]
      }
    },
    {
      "type": "Feature",
      "properties": {
        "norad_id": 27445,
        "name": "GALAXY 3C (G-3C)",
        "group": "intelsat",
        "lat": -2.996459082787661,
        "lon": -33.0457738330908,
        "alt_km": 35790.78457751977,
        "timestamp": "2025-12-11T22:43:46.939359+00:00",
        "meta_object_name": "GALAXY 3C (G-3C)",
        "meta_object_id": "2002-030A",
        "meta_epoch": "2025-12-11T13:03:40.150944",
        "meta_mean_motion": 1.00271539,
        "meta_eccentricity": 0.00011176,
        "meta_inclination": 3.2614,
        "meta_ra_of_asc_node": 80.5196,
        "meta_arg_of_pericenter": 92.2293,
        "meta_mean_anomaly": 8.809,
        "meta_ephemeris_type": 0,
        "meta_classification_type": "U",
        "meta_norad_cat_id": 27445,
        "meta_element_set_no": 999,
        "meta_rev_at_epoch": 4461,
        "meta_bstar": 0,
        "meta_mean_motion_dot": -1.45e-06,
        "meta_mean_motion_ddot": 0,
        "tle_line1": "1 27445U 02030A   25345.54421471 -.00000145  00000+0  00000+0 0  9993",
        "tle_line2": "2 27445   3.2614  80.5196 0001117  92.2293   8.8090  1.00271539 44614"
      },
      "geometry": {
        "type": "Point",
        "coordinates": [
          -33.0457738330908,
          -2.996459082787661
        ]
      }
    },
    {
      "type": "Feature",
      "properties": {
        "norad_id": 27513,
        "name": "INTELSAT 906 (IS-906)",
        "group": "intelsat",
        "lat": 4.131625254812543,
        "lon": 125.80997564487758,
        "alt_km": 35805.87386243859,
        "timestamp": "2025-12-11T22:43:46.939382+00:00",
        "meta_object_name": "INTELSAT 906 (IS-906)",
        "meta_object_id": "2002-041A",
        "meta_epoch": "2025-12-11T08:40:50.039328",
        "meta_mean_motion": 1.00271319,
        "meta_eccentricity": 0.00061529,
        "meta_inclination": 5.3253,
        "meta_ra_of_asc_node": 75.2478,
        "meta_arg_of_pericenter": 191.7264,
        "meta_mean_anomaly": 7.6889,
        "meta_ephemeris_type": 0,
        "meta_classification_type": "U",
        "meta_norad_cat_id": 27513,
        "meta_element_set_no": 999,
        "meta_rev_at_epoch": 8514,
        "meta_bstar": 0,
        "meta_mean_motion_dot": 1.9e-07,
        "meta_mean_motion_ddot": 0,
        "tle_line1": "1 27513U 02041A   25345.36169027  .00000019  00000+0  00000+0 0  9996",
        "tle_line2": "2 27513   5.3253  75.2478 0006152 191.7264   7.6889  1.00271319 85145"
      },
      "geometry": {
        "type": "Point",
        "coordinates": [
          125.80997564487758,
          4.131625254812543
        ]
      }
    }
  ]
}